{
  "norad_id": 44048,
  "name": "NUSANTARA SATU",
  "history": [
    {
      "epoch": "2026-03-28T20:36:47.066976Z",
      "apogee_km": 35796.051128241554,
      "perigee_km": 35778.0229864216,
      "latitude_deg": 0.03557273568251848,
      "longitude_deg": 146.00236216228802,
      "height_km": 35795.28008664652,
      "semi_major_axis_km": 42165.174057331584,
      "eccentricity": 0.00021378,
      "inclination_deg": 0.0308,
      "raan_deg": 135.3681,
      "arg_perigee_deg": 313.5835,
      "mean_anomaly_deg": 192.502,
      "mean_motion_rev_day": 1.00270208
    }
  ]
}